H1 CPF  1  DLR 2021 07 13 10  6942 technosat            
H2  1704205 6203    42829 2021 07 13 00 00 00 2021 07 20 00 00 00    60 1 1  0 0 0
H9
10 0 59409  57600.000000  0       2426060.478       5922084.952      -2802477.702
10 0 59409  57660.000000  0       2437440.063       5709030.936      -3207183.103
10 0 59409  57720.000000  0       2436647.929       5472033.132      -3598366.555
10 0 59409  57780.000000  0       2423489.129       5212205.321      -3974388.121
10 0 59409  57840.000000  0       2397830.544       4930756.828      -4333673.702
10 0 59409  57900.000000  0       2359602.080       4628986.626      -4674721.410
10 0 59409  57960.000000  0       2308797.552       4308277.082      -4996107.562
10 0 59409  58020.000000  0       2245475.259       3970087.434      -5296492.281
10 0 59409  58080.000000  0       2169758.271       3615947.037      -5574624.762
10 0 59409  58140.000000  0       2081834.375       3247448.305      -5829348.165
10 0 59409  58200.000000  0       1981955.693       2866239.476      -6059604.045
10 0 59409  58260.000000  0       1870438.011       2474017.200      -6264436.359
10 0 59409  58320.000000  0       1747659.799       2072519.040      -6442995.013
10 0 59409  58380.000000  0       1614060.988       1663515.922      -6594539.027
10 0 59409  58440.000000  0       1470141.459       1248804.470      -6718439.348
10 0 59409  58500.000000  0       1316459.194        830199.281      -6814181.190
10 0 59409  58560.000000  0       1153628.139        409525.218      -6881365.962
10 0 59409  58620.000000  0        982315.806        -11390.328      -6919712.767
10 0 59409  58680.000000  0        803240.596       -430725.171      -6929059.439
10 0 59409  58740.000000  0        617168.890       -846669.933      -6909363.120
10 0 59409  58800.000000  0        424911.902      -1257435.556      -6860700.468
10 0 59409  58860.000000  0        227322.319      -1661260.702      -6783267.424
10 0 59409  58920.000000  0         25290.699      -2056419.017      -6677378.670
10 0 59409  58980.000000  0       -180258.407      -2441226.378      -6543466.684
10 0 59409  59040.000000  0       -388370.550      -2814048.016      -6382080.236
10 0 59409  59100.000000  0       -598065.640      -3173305.376      -6193882.387
10 0 59409  59160.000000  0       -808342.360      -3517482.712      -5979648.132
10 0 59409  59220.000000  0      -1018182.772      -3845133.500      -5740261.653
10 0 59409  59280.000000  0      -1226557.080      -4154886.621      -5476713.125
10 0 59409  59340.000000  0      -1432428.548      -4445452.283      -5190095.072
10 0 59409  59400.000000  0      -1634758.535      -4715627.637      -4881598.243
10 0 59409  59460.000000  0      -1832511.641      -4964302.033      -4552507.065
10 0 59409  59520.000000  0      -2024660.917      -5190461.901      -4204194.645
10 0 59409  59580.000000  0      -2210193.115      -5393195.228      -3838117.364
10 0 59409  59640.000000  0      -2388113.950      -5571695.600      -3455809.068
10 0 59409  59700.000000  0      -2557453.353      -5725265.806      -3058874.882
10 0 59409  59760.000000  0      -2717270.689      -5853320.970      -2648984.653
10 0 59409  59820.000000  0      -2866659.915      -5955391.198      -2227866.042
10 0 59409  59880.000000  0      -3004754.637      -6031123.702      -1797297.274
10 0 59409  59940.000000  0      -3130733.043      -6080284.380      -1359099.577
10 0 59409  60000.000000  0      -3243822.651      -6102758.794       -915129.338
10 0 59409  60060.000000  0      -3343304.845      -6098552.560       -467270.044
10 0 59409  60120.000000  0      -3428519.157      -6067791.135        -17424.079
10 0 59409  60180.000000  0      -3498867.309      -6010719.045        432495.618
10 0 59409  60240.000000  0      -3553816.963      -5927698.507        880573.999
10 0 59409  60300.000000  0      -3592905.156      -5819207.461       1324902.387
10 0 59409  60360.000000  0      -3615741.387      -5685837.003       1763586.979
10 0 59409  60420.000000  0      -3622010.324      -5528288.230       2194757.245
10 0 59409  60480.000000  0      -3611474.140      -5347368.574       2616574.201
10 0 59409  60540.000000  0      -3583974.462      -5143987.634       3027238.560
10 0 59409  60600.000000  0      -3539433.908      -4919152.507       3424998.687
10 0 59409  60660.000000  0      -3477857.204      -4673962.653       3808158.319
10 0 59409  60720.000000  0      -3399331.895      -4409604.335       4175084.018
10 0 59409  60780.000000  0      -3304028.608      -4127344.621       4524212.309
10 0 59409  60840.000000  0      -3192200.913      -3828525.044       4854056.413
10 0 59409  60900.000000  0      -3064184.772      -3514554.987       5163212.643
10 0 59409  60960.000000  0      -2920397.527      -3186904.769       5450366.410
10 0 59409  61020.000000  0      -2761336.487      -2847098.523       5714297.749
10 0 59409  61080.000000  0      -2587577.142      -2496706.909       5953886.432
10 0 59409  61140.000000  0      -2399770.984      -2137339.670       6168116.661
10 0 59409  61200.000000  0      -2198642.964      -1770638.072       6356081.320
10 0 59409  61260.000000  0      -1984988.533      -1398267.189       6516985.774
10 0 59409  61320.000000  0      -1759670.293      -1021908.092       6650151.046
10 0 59409  61380.000000  0      -1523614.366       -643250.087       6755016.392
10 0 59409  61440.000000  0      -1277806.523       -263983.124       6831141.383
10 0 59409  61500.000000  0      -1023288.049        114209.735       6878207.684
10 0 59409  61560.000000  0       -761151.258        489659.866       6896020.336
10 0 59409  61620.000000  0       -492534.728        860720.525       6884508.474
10 0 59409  61680.000000  0       -218618.291       1225774.117       6843725.534
10 0 59409  61740.000000  0         59382.200       1583239.298       6773848.983
10 0 59409  61800.000000  0        340220.341       1931577.916       6675179.516
10 0 59409  61860.000000  0        622624.819       2269301.636       6548139.685
10 0 59409  61920.000000  0        905305.175       2594978.309       6393272.132
10 0 59409  61980.000000  0       1186957.730       2907238.095       6211237.343
10 0 59409  62040.000000  0       1466271.612       3204779.323       6002810.909
10 0 59409  62100.000000  0       1741934.880       3486374.017       5768880.300
10 0 59409  62160.000000  0       2012640.716       3750873.090       5510441.180
10 0 59409  62220.000000  0       2277093.704       3997211.174       5228593.269
10 0 59409  62280.000000  0       2534016.129       4224411.064       4924535.672
10 0 59409  62340.000000  0       2782154.192       4431587.663       4599561.751
10 0 59409  62400.000000  0       3020284.120       4617951.494       4255053.670
10 0 59409  62460.000000  0       3247218.197       4782811.808       3892476.574
10 0 59409  62520.000000  0       3461810.745       4925579.275       3513372.477
10 0 59409  62580.000000  0       3662964.080       5045768.344       3119353.692
10 0 59409  62640.000000  0       3849634.308       5142998.962       2712095.643
10 0 59409  62700.000000  0       4020836.602       5216997.512       2293329.446
10 0 59409  62760.000000  0       4175650.203       5267597.361       1864834.510
10 0 59409  62820.000000  0       4313223.303       5294739.049       1428430.955
10 0 59409  62880.000000  0       4432777.722       5298470.051        985971.661
10 0 59409  62940.000000  0       4533613.105       5278943.836        539334.008
10 0 59409  63000.000000  0       4615110.677       5236418.314         90411.647
10 0 59409  63060.000000  0       4676736.647       5171253.811       -358893.685
10 0 59409  63120.000000  0       4718045.254       5083910.595       -806680.379
10 0 59409  63180.000000  0       4738681.378       4974945.956      -1251055.157
10 0 59409  63240.000000  0       4738382.693       4845010.837      -1690141.217
10 0 59409  63300.000000  0       4716981.382       4694846.047      -2122086.271
10 0 59409  63360.000000  0       4674405.388       4525278.052      -2545070.433
10 0 59409  63420.000000  0       4610679.225       4337214.409      -2957313.919
10 0 59409  63480.000000  0       4525924.270       4131638.845      -3357084.554
10 0 59409  63540.000000  0       4420358.570       3909606.007      -3742704.956
10 0 59409  63600.000000  0       4294296.241       3672235.963      -4112559.388
10 0 59409  63660.000000  0       4148146.472       3420708.479      -4465100.356
10 0 59409  63720.000000  0       3982412.045       3156257.055      -4798854.853
10 0 59409  63780.000000  0       3797687.469       2880162.824      -5112430.236
10 0 59409  63840.000000  0       3594656.679       2593748.316      -5404519.755
10 0 59409  63900.000000  0       3374090.325       2298371.094      -5673907.654
10 0 59409  63960.000000  0       3136842.717       1995417.330      -5919473.850
10 0 59409  64020.000000  0       2883848.390       1686295.333      -6140198.222
10 0 59409  64080.000000  0       2616118.329       1372429.083      -6335164.441
10 0 59409  64140.000000  0       2334735.887       1055251.803      -6503563.388
10 0 59409  64200.000000  0       2040852.434        736199.568      -6644696.122
10 0 59409  64260.000000  0       1735682.763        416705.012      -6757976.474
10 0 59409  64320.000000  0       1420500.213         98191.108      -6842933.338
10 0 59409  64380.000000  0       1096631.395       -217935.040      -6899212.494
10 0 59409  64440.000000  0        765450.711       -530288.238      -6926577.851
10 0 59409  64500.000000  0        428374.731       -837511.048      -6924912.289
10 0 59409  64560.000000  0         86856.368      -1138279.471      -6894218.133
10 0 59409  64620.000000  0       -257621.123      -1431308.430      -6834617.212
10 0 59409  64680.000000  0       -603550.354      -1715357.085      -6746350.577
10 0 59409  64740.000000  0       -949406.216      -1989233.994      -6629777.742
99
